[
    {
        "Altitude(m)": 553475.1962658501,
        "Argument of Periapsis(deg)": 0.0,
        "Eccentricity": 0.0,
        "Inclination(deg)": 53.0,
        "Latitude(deg)": 13.004233554411961,
        "Longitude(deg)": -70.00241546912939,
        "Mean Anomaly(deg)": 16.3636,
        "RAAN(deg)": 20.0,
        "Satellite Name": "Starlink Shell 1 89",
        "Satellite Number": 89,
        "Semi-Major Axis(m)": 6931778.249405717,
        "Time(s)": 0
    },
    {
        "Altitude(m)": 553482.4469274343,
        "Argument of Periapsis(deg)": 0.00034857847951123687,
        "Eccentricity": 0.0,
        "Inclination(deg)": 53.0,
        "Latitude(deg)": 13.500175159330938,
        "Longitude(deg)": -69.64616746341247,
        "Mean Anomaly(deg)": 16.990431203556714,
        "RAAN(deg)": 19.999481229922527,
        "Satellite Name": "Starlink Shell 1 89",
        "Satellite Number": 89,
        "Semi-Major Axis(m)": 6931778.249405717,
        "Time(s)": 10
    },
    {
        "Altitude(m)": 553492.2298918681,
        "Argument of Periapsis(deg)": 0.0006971569590224737,
        "Eccentricity": 0.0,
        "Inclination(deg)": 53.0,
        "Latitude(deg)": 13.995468980961997,
        "Longitude(deg)": -69.28827342413516,
        "Mean Anomaly(deg)": 17.617262407113433,
        "RAAN(deg)": 19.998962459845057,
        "Satellite Name": "Starlink Shell 1 89",
        "Satellite Number": 89,
        "Semi-Major Axis(m)": 6931778.249405717,
        "Time(s)": 20
    },
    {
        "Altitude(m)": 553504.5178088095,
        "Argument of Periapsis(deg)": 0.0010457354385337105,
        "Eccentricity": 0.0,
        "Inclination(deg)": 53.0,
        "Latitude(deg)": 14.49008735184987,
        "Longitude(deg)": -68.92866601077637,
        "Mean Anomaly(deg)": 18.244093610670138,
        "RAAN(deg)": 19.998443689767583,
        "Satellite Name": "Starlink Shell 1 89",
        "Satellite Number": 89,
        "Semi-Major Axis(m)": 6931778.249405717,
        "Time(s)": 30
    },
    {
        "Altitude(m)": 553519.2821953662,
        "Argument of Periapsis(deg)": 0.0013943139180449475,
        "Eccentricity": 0.0,
        "Inclination(deg)": 53.0,
        "Latitude(deg)": 14.984002231965857,
        "Longitude(deg)": -68.56727664565771,
        "Mean Anomaly(deg)": 18.870924814226864,
        "RAAN(deg)": 19.99792491969011,
        "Satellite Name": "Starlink Shell 1 89",
        "Satellite Number": 89,
        "Semi-Major Axis(m)": 6931778.249405717,
        "Time(s)": 40
    },
    {
        "Altitude(m)": 553536.4934529237,
        "Argument of Periapsis(deg)": 0.0017428923975561844,
        "Eccentricity": 0.0,
        "Inclination(deg)": 53.0,
        "Latitude(deg)": 15.477185192263962,
        "Longitude(deg)": -68.20403649553282,
        "Mean Anomaly(deg)": 19.497756017783576,
        "RAAN(deg)": 19.997406149612633,
        "Satellite Name": "Starlink Shell 1 89",
        "Satellite Number": 89,
        "Semi-Major Axis(m)": 6931778.249405717,
        "Time(s)": 50
    },
    {
        "Altitude(m)": 553556.1208845251,
        "Argument of Periapsis(deg)": 0.002091470877067421,
        "Eccentricity": 0.0,
        "Inclination(deg)": 53.0,
        "Latitude(deg)": 15.969607397890776,
        "Longitude(deg)": -67.83887594031727,
        "Mean Anomaly(deg)": 20.124587221340295,
        "RAAN(deg)": 19.996887379535163,
        "Satellite Name": "Starlink Shell 1 89",
        "Satellite Number": 89,
        "Semi-Major Axis(m)": 6931778.249405717,
        "Time(s)": 60
    },
    {
        "Altitude(m)": 553578.132712771,
        "Argument of Periapsis(deg)": 0.0024400493565786582,
        "Eccentricity": 0.0,
        "Inclination(deg)": 53.0,
        "Latitude(deg)": 16.46123959103559,
        "Longitude(deg)": -67.47172404185426,
        "Mean Anomaly(deg)": 20.751418424897007,
        "RAAN(deg)": 19.99636860945769,
        "Satellite Name": "Starlink Shell 1 89",
        "Satellite Number": 89,
        "Semi-Major Axis(m)": 6931778.249405717,
        "Time(s)": 70
    },
    {
        "Altitude(m)": 553602.4960982224,
        "Argument of Periapsis(deg)": 0.002788627836089895,
        "Eccentricity": 0.0,
        "Inclination(deg)": 53.0,
        "Latitude(deg)": 16.952052073407746,
        "Longitude(deg)": -67.10250952561343,
        "Mean Anomaly(deg)": 21.378249628453727,
        "RAAN(deg)": 19.995849839380217,
        "Satellite Name": "Starlink Shell 1 89",
        "Satellite Number": 89,
        "Semi-Major Axis(m)": 6931778.249405717,
        "Time(s)": 80
    },
    {
        "Altitude(m)": 553629.177158358,
        "Argument of Periapsis(deg)": 0.0031372063156011316,
        "Eccentricity": 0.0,
        "Inclination(deg)": 53.0,
        "Latitude(deg)": 17.442014688330133,
        "Longitude(deg)": -66.73116024960792,
        "Mean Anomaly(deg)": 22.005080832010435,
        "RAAN(deg)": 19.995331069302747,
        "Satellite Name": "Starlink Shell 1 89",
        "Satellite Number": 89,
        "Semi-Major Axis(m)": 6931778.249405717,
        "Time(s)": 90
    },
    {
        "Altitude(m)": 553658.140986986,
        "Argument of Periapsis(deg)": 0.0034857847951123688,
        "Eccentricity": 0.0,
        "Inclination(deg)": 53.0,
        "Latitude(deg)": 17.931096802436063,
        "Longitude(deg)": -66.3576026734326,
        "Mean Anomaly(deg)": 22.631912035567154,
        "RAAN(deg)": 19.99481229922527,
        "Satellite Name": "Starlink Shell 1 89",
        "Satellite Number": 89,
        "Semi-Major Axis(m)": 6931778.249405717,
        "Time(s)": 100
    },
    {
        "Altitude(m)": 553689.3516741561,
        "Argument of Periapsis(deg)": 0.003834363274623606,
        "Eccentricity": 0.0,
        "Inclination(deg)": 53.0,
        "Latitude(deg)": 18.419267286956405,
        "Longitude(deg)": -65.98176284033333,
        "Mean Anomaly(deg)": 23.25874323912387,
        "RAAN(deg)": 19.994293529147797,
        "Satellite Name": "Starlink Shell 1 89",
        "Satellite Number": 89,
        "Semi-Major Axis(m)": 6931778.249405717,
        "Time(s)": 110
    },
    {
        "Altitude(m)": 553722.7723265821,
        "Argument of Periapsis(deg)": 0.004182941754134842,
        "Eccentricity": 0.0,
        "Inclination(deg)": 53.0,
        "Latitude(deg)": 18.906494498586724,
        "Longitude(deg)": -65.60356584660114,
        "Mean Anomaly(deg)": 23.88557444268058,
        "RAAN(deg)": 19.993774759070327,
        "Satellite Name": "Starlink Shell 1 89",
        "Satellite Number": 89,
        "Semi-Major Axis(m)": 6931778.249405717,
        "Time(s)": 120
    },
    {
        "Altitude(m)": 553758.3650884634,
        "Argument of Periapsis(deg)": 0.004531520233646079,
        "Eccentricity": 0.0,
        "Inclination(deg)": 53.0,
        "Latitude(deg)": 19.39274625992213,
        "Longitude(deg)": -65.22293531120786,
        "Mean Anomaly(deg)": 24.5124056462373,
        "RAAN(deg)": 19.993255988992853,
        "Satellite Name": "Starlink Shell 1 89",
        "Satellite Number": 89,
        "Semi-Major Axis(m)": 6931778.249405717,
        "Time(s)": 130
    },
    {
        "Altitude(m)": 553796.0911628313,
        "Argument of Periapsis(deg)": 0.0048800987131573164,
        "Eccentricity": 0.0,
        "Inclination(deg)": 53.0,
        "Latitude(deg)": 19.8779898394473,
        "Longitude(deg)": -64.83979435860445,
        "Mean Anomaly(deg)": 25.13923684979401,
        "RAAN(deg)": 19.99273721891538,
        "Satellite Name": "Starlink Shell 1 89",
        "Satellite Number": 89,
        "Semi-Major Axis(m)": 6931778.249405717,
        "Time(s)": 140
    },
    {
        "Altitude(m)": 553835.910833282,
        "Argument of Periapsis(deg)": 0.005228677192668553,
        "Eccentricity": 0.0,
        "Inclination(deg)": 53.0,
        "Latitude(deg)": 20.36219193107275,
        "Longitude(deg)": -64.45406508898992,
        "Mean Anomaly(deg)": 25.76606805335073,
        "RAAN(deg)": 19.992218448837907,
        "Satellite Name": "Starlink Shell 1 89",
        "Satellite Number": 89,
        "Semi-Major Axis(m)": 6931778.249405717,
        "Time(s)": 150
    },
    {
        "Altitude(m)": 553877.783486178,
        "Argument of Periapsis(deg)": 0.00557725567217979,
        "Eccentricity": 0.0,
        "Inclination(deg)": 53.0,
        "Latitude(deg)": 20.845318633205363,
        "Longitude(deg)": -64.06566804898242,
        "Mean Anomaly(deg)": 26.39289925690744,
        "RAAN(deg)": 19.991699678760433,
        "Satellite Name": "Starlink Shell 1 89",
        "Satellite Number": 89,
        "Semi-Major Axis(m)": 6931778.249405717,
        "Time(s)": 160
    },
    {
        "Altitude(m)": 553921.6676332486,
        "Argument of Periapsis(deg)": 0.0059258341516910265,
        "Eccentricity": 0.0,
        "Inclination(deg)": 53.0,
        "Latitude(deg)": 21.32733542734267,
        "Longitude(deg)": -63.67452321562834,
        "Mean Anomaly(deg)": 27.019730460464164,
        "RAAN(deg)": 19.99118090868296,
        "Satellite Name": "Starlink Shell 1 89",
        "Satellite Number": 89,
        "Semi-Major Axis(m)": 6931778.249405717,
        "Time(s)": 170
    },
    {
        "Altitude(m)": 553967.5209345982,
        "Argument of Periapsis(deg)": 0.006274412631202263,
        "Eccentricity": 0.0,
        "Inclination(deg)": 53.0,
        "Latitude(deg)": 21.80820715618258,
        "Longitude(deg)": -63.280549468074874,
        "Mean Anomaly(deg)": 27.646561664020876,
        "RAAN(deg)": 19.990662138605487,
        "Satellite Name": "Starlink Shell 1 89",
        "Satellite Number": 89,
        "Semi-Major Axis(m)": 6931778.249405717,
        "Time(s)": 180
    }
]